[{"OBJECT_NAME":"TIANQIN 1 (CAS-6)","OBJECT_ID":"2019-093A","EPOCH":"2026-03-09T23:25:50.916864","MEAN_MOTION":14.94890933,"ECCENTRICITY":0.00118256,"INCLINATION":97.7823,"RA_OF_ASC_NODE":153.5687,"ARG_OF_PERICENTER":31.664,"MEAN_ANOMALY":328.5289,"EPHEMERIS_TYPE":0,"CLASSIFICATION_TYPE":"U","NORAD_CAT_ID":44879,"ELEMENT_SET_NO":999,"REV_AT_EPOCH":33722,"BSTAR":0.00035534384,"MEAN_MOTION_DOT":3.822e-5,"MEAN_MOTION_DDOT":0},{"OBJECT_NAME":"STARLINK-34184","OBJECT_ID":"2025-102B","EPOCH":"2026-03-09T12:22:42.655872","MEAN_MOTION":14.98330419,"ECCENTRICITY":0.000347,"INCLINATION":70.0003,"RA_OF_ASC_NODE":114.9946,"ARG_OF_PERICENTER":269.9229,"MEAN_ANOMALY":90.1532,"EPHEMERIS_TYPE":0,"CLASSIFICATION_TYPE":"U","NORAD_CAT_ID":64023,"ELEMENT_SET_NO":999,"REV_AT_EPOCH":4593,"BSTAR":0.0001242141,"MEAN_MOTION_DOT":1.389e-5,"MEAN_MOTION_DDOT":0}]
